{"type":"FeatureCollection","features":[{"type":"Feature","geometry":{"type":"Point","coordinates":[-84.51564,39.11174]},"bbox":[-84.532845,39.106343,-84.509649,39.124164],"properties":{"label":"Over-the-Rhine - Cincinnati, Ohio, United States","Description":"Over-The-Rhine is a historical working-class neighborhood directly north of downtown Cincinnati. While I don't know as much about it as I do The Hill District, I currently know that It's been heavily gentrified, pushing out the original community and now serving the more wealthy. It still retains much of its older architecture though."}},{"type":"Feature","geometry":{"type":"Point","coordinates":[-79.97748,40.444954]},"bbox":[-79.984229,40.439366,-79.974582,40.45163],"properties":{"label":"Hill District - Pittsburgh, Pennsylvania, United States","Description":"A once robust & lively black neighborhood that was mostly demolished during the era of urban renewal. It's famous for being one of the biggest stops for jazz music, with musicians driving between Chicago and New York stopping to play at clubs & venues. It was incredibly vital for black culture in Pittsburgh and had an incredibly tight knit community. Once urban renewal came along though, and cities sought to bring back a tax base through white families who fled to the suburbs, they decided to demolish the lower hill near downtown to build the Civic Arena, displacing thousands of residents in the name of \"clearing blight.\" Over time this displaced the community of the Hill. Today, the Hill is making a slow comeback, but the harm the community & families of black Pittsburgh sustained in the process should not be forgotten."}},{"type":"Feature","geometry":{"type":"Point","coordinates":[-80.72227,40.065627]},"bbox":[-80.73923,39.951625,-80.549614,40.200663],"properties":{"label":"Wheeling - West Virginia, United States"}},{"type":"Feature","properties":{"label":"I-75 Corridor in Cincinnati","Description":"This corridor was built during urban renewal, and purposefully cut through predominantly black communities. The major interchange in the south connecting the Mill Creek Expressway, I-71, and I-75 (if I remember correctly) was also purposefully built to displace as many black and minority families as possible. The convenience of infrastructure can be at the cost of people."},"geometry":{"type":"Polygon","coordinates":[[[-84.522374,39.095628],[-84.521215,39.096186],[-84.518509,39.097044],[-84.519464,39.100219],[-84.522345,39.102425],[-84.525724,39.103806],[-84.529352,39.105327],[-84.530861,39.10788],[-84.530795,39.111337],[-84.530817,39.1134],[-84.531448,39.114659],[-84.534648,39.118637],[-84.535239,39.120825],[-84.536179,39.120784],[-84.5354,39.118241],[-84.532392,39.11424],[-84.531801,39.112719],[-84.532075,39.109879],[-84.53228,39.107899],[-84.531681,39.10604],[-84.527603,39.103571],[-84.525068,39.102225],[-84.523745,39.101003],[-84.522989,39.099474],[-84.522374,39.095628]]]}},{"type":"Feature","properties":{"label":"Brent Spencer Bridge","Description":"A very important double-decker truss bridge for Kentucky & Ohio, supporting I-71 traffic both ways. The top deck is for Kentucky-bound traffic, while the bottom is for Ohio-bound. Both the top and bottom deck feature 4 compact lanes with no shoulder, making it very dangerous. I believe that currently there is federal funding for supporting a new bridge, as well as funding to change the footprint of the massive interchange north of it."},"geometry":{"type":"LineString","coordinates":[[-84.522479,39.093696],[-84.522735,39.088183]]}},{"type":"Feature","properties":{"label":"Quincy Street Floodwall","Description":"The extent of the wall itself is much longer than this, going towards downtown through Franklin Street, but this is the most striking part of it: it cuts straight down the center of the street and goes towards Bear Creek, where a small dam also is. It was first built after the Great Flood of 1937 which destroyed most of the Butchertown neighborhood that it's located in. The reason that this wall was built in the middle of the street rather than on one side or the other, is because the Army Corps of engineers wanted to avoid having to destroy the historical housing that was still standing."},"geometry":{"type":"LineString","coordinates":[[-85.729062,38.257388],[-85.726072,38.258676]]}},{"type":"Feature","properties":{"label":"North 10th St./Rowan St. Floodwall","Description":"I don't know a lot about this one, I have to do more research. I'm pretty sure all the walls were connected at some point."},"geometry":{"type":"LineString","coordinates":[[-85.765462,38.258894],[-85.766314,38.258922],[-85.767827,38.259111],[-85.768056,38.259132],[-85.76832,38.259223],[-85.76831,38.259294],[-85.769474,38.259429],[-85.770468,38.259545],[-85.771127,38.259621],[-85.771192,38.25977],[-85.770585,38.259901]]}},{"type":"Feature","geometry":{"type":"Point","coordinates":[-85.72978,38.255207]},"bbox":[-85.742305,38.253441,-85.714278,38.268194],"properties":{"label":"Butchertown - Louisville, Kentucky, United States"}},{"type":"Feature","properties":{"label":"Rachel Carlson, Andy Warhol, & Roberto Clemente Bridges"},"geometry":{"type":"Polygon","coordinates":[[[-80.003801,40.446788],[-80.002901,40.444308],[-80.000982,40.444903],[-79.999137,40.445536],[-80.000293,40.447709],[-80.001845,40.447271],[-80.003801,40.446788]]]}},{"type":"Feature","properties":{"label":"Fort Pitt Bridge"},"geometry":{"type":"LineString","coordinates":[[-80.012912,40.438084],[-80.009501,40.439886]]}},{"type":"Feature","properties":{"label":"Fort Duquesne Bridge"},"geometry":{"type":"LineString","coordinates":[[-80.008834,40.443223],[-80.009606,40.445687]]}},{"type":"Feature","properties":{"label":"Veteran's Bridge, Crosstown Blvd., & Liberty Bridge"},"geometry":{"type":"LineString","coordinates":[[-79.996177,40.452273],[-79.992631,40.44907],[-79.990706,40.447325],[-79.990142,40.445273],[-79.991071,40.44387],[-79.992467,40.441608],[-79.993176,40.44009],[-79.993957,40.438594],[-79.99438,40.436822],[-79.994764,40.435717],[-79.995923,40.433994],[-79.999241,40.429185]]}}]}